{
  "links" : {
    "next" : "https://api.nasa.gov/neo/rest/v1/feed?start_date=2004-03-09&end_date=2004-03-09&detailed=true&api_key=t0TVs3DtDT2H8Oy2Zy8m2eVrNsAVKAexjcZXUckd",
    "prev" : "https://api.nasa.gov/neo/rest/v1/feed?start_date=2004-03-07&end_date=2004-03-07&detailed=true&api_key=t0TVs3DtDT2H8Oy2Zy8m2eVrNsAVKAexjcZXUckd",
    "self" : "https://api.nasa.gov/neo/rest/v1/feed?start_date=2004-03-08&end_date=2004-03-08&detailed=true&api_key=t0TVs3DtDT2H8Oy2Zy8m2eVrNsAVKAexjcZXUckd"
  },
  "element_count" : 8,
  "near_earth_objects" : {
    "2004-03-08" : [ {
      "links" : {
        "self" : "https://api.nasa.gov/neo/rest/v1/neo/2085989?api_key=t0TVs3DtDT2H8Oy2Zy8m2eVrNsAVKAexjcZXUckd"
      },
      "neo_reference_id" : "2085989",
      "name" : "85989 (1999 JD6)",
      "nasa_jpl_url" : "http://ssd.jpl.nasa.gov/sbdb.cgi?sstr=2085989",
      "absolute_magnitude_h" : 17.1,
      "estimated_diameter" : {
        "kilometers" : {
          "estimated_diameter_min" : 1.0105434154,
          "estimated_diameter_max" : 2.2596437711
        },
        "meters" : {
          "estimated_diameter_min" : 1010.5434154201,
          "estimated_diameter_max" : 2259.643771094
        },
        "miles" : {
          "estimated_diameter_min" : 0.6279223726,
          "estimated_diameter_max" : 1.4040771097
        },
        "feet" : {
          "estimated_diameter_min" : 3315.4312590467,
          "estimated_diameter_max" : 7413.5296699562
        }
      },
      "is_potentially_hazardous_asteroid" : true,
      "close_approach_data" : [ {
        "close_approach_date" : "2004-03-08",
        "epoch_date_close_approach" : 1078732800000,
        "relative_velocity" : {
          "kilometers_per_second" : "16.1329289851",
          "kilometers_per_hour" : "58078.5443463838",
          "miles_per_hour" : "36087.748846785"
        },
        "miss_distance" : {
          "astronomical" : "0.4733926365",
          "lunar" : "184.1497344971",
          "kilometers" : "70818528",
          "miles" : "44004596"
        },
        "orbiting_body" : "Earth"
      } ],
      "orbital_data" : {
        "orbit_id" : "289",
        "orbit_determination_date" : "2017-04-06 09:28:33",
        "orbit_uncertainty" : "0",
        "minimum_orbit_intersection" : ".0480717",
        "jupiter_tisserand_invariant" : "6.502",
        "epoch_osculation" : "2458000.5",
        "eccentricity" : ".6328373731114443",
        "semi_major_axis" : ".8830625113464621",
        "inclination" : "17.05627108732804",
        "ascending_node_longitude" : "130.2027845779737",
        "orbital_period" : "303.0997645114537",
        "perihelion_distance" : ".324227551372772",
        "perihelion_argument" : "309.1887641469194",
        "aphelion_distance" : "1.441897471320152",
        "perihelion_time" : "2457890.639144911038",
        "mean_anomaly" : "130.4847857462841",
        "mean_motion" : "1.187727745616233",
        "equinox" : "J2000"
      }
    }, {
      "links" : {
        "self" : "https://api.nasa.gov/neo/rest/v1/neo/2088188?api_key=t0TVs3DtDT2H8Oy2Zy8m2eVrNsAVKAexjcZXUckd"
      },
      "neo_reference_id" : "2088188",
      "name" : "88188 (2000 XH44)",
      "nasa_jpl_url" : "http://ssd.jpl.nasa.gov/sbdb.cgi?sstr=2088188",
      "absolute_magnitude_h" : 16.0,
      "estimated_diameter" : {
        "kilometers" : {
          "estimated_diameter_min" : 1.6770846216,
          "estimated_diameter_max" : 3.750075218
        },
        "meters" : {
          "estimated_diameter_min" : 1677.0846216284,
          "estimated_diameter_max" : 3750.0752179805
        },
        "miles" : {
          "estimated_diameter_min" : 1.0420917484,
          "estimated_diameter_max" : 2.3301879883
        },
        "feet" : {
          "estimated_diameter_min" : 5502.2463100232,
          "estimated_diameter_max" : 12303.3967781592
        }
      },
      "is_potentially_hazardous_asteroid" : false,
      "close_approach_data" : [ {
        "close_approach_date" : "2004-03-08",
        "epoch_date_close_approach" : 1078732800000,
        "relative_velocity" : {
          "kilometers_per_second" : "6.3246437547",
          "kilometers_per_hour" : "22768.7175169449",
          "miles_per_hour" : "14147.5956149039"
        },
        "miss_distance" : {
          "astronomical" : "0.2488628239",
          "lunar" : "96.8076324463",
          "kilometers" : "37229348",
          "miles" : "23133244"
        },
        "orbiting_body" : "Earth"
      } ],
      "orbital_data" : {
        "orbit_id" : "211",
        "orbit_determination_date" : "2017-09-02 06:19:38",
        "orbit_uncertainty" : "0",
        "minimum_orbit_intersection" : ".233996",
        "jupiter_tisserand_invariant" : "3.712",
        "epoch_osculation" : "2458000.5",
        "eccentricity" : ".3916804313186327",
        "semi_major_axis" : "2.007988860560579",
        "inclination" : "11.36691752759855",
        "ascending_node_longitude" : "340.22868739891",
        "orbital_period" : "1039.298679957853",
        "perihelion_distance" : "1.221498917573202",
        "perihelion_argument" : "195.0392146577685",
        "aphelion_distance" : "2.794478803547956",
        "perihelion_time" : "2458281.465407998728",
        "mean_anomaly" : "262.6771140673016",
        "mean_motion" : ".3463874311998542",
        "equinox" : "J2000"
      }
    }, {
      "links" : {
        "self" : "https://api.nasa.gov/neo/rest/v1/neo/2411165?api_key=t0TVs3DtDT2H8Oy2Zy8m2eVrNsAVKAexjcZXUckd"
      },
      "neo_reference_id" : "2411165",
      "name" : "411165 (2010 DF1)",
      "nasa_jpl_url" : "http://ssd.jpl.nasa.gov/sbdb.cgi?sstr=2411165",
      "absolute_magnitude_h" : 21.8,
      "estimated_diameter" : {
        "kilometers" : {
          "estimated_diameter_min" : 0.1160259082,
          "estimated_diameter_max" : 0.2594418179
        },
        "meters" : {
          "estimated_diameter_min" : 116.0259082094,
          "estimated_diameter_max" : 259.4418179074
        },
        "miles" : {
          "estimated_diameter_min" : 0.0720951346,
          "estimated_diameter_max" : 0.1612096218
        },
        "feet" : {
          "estimated_diameter_min" : 380.6624406898,
          "estimated_diameter_max" : 851.1870938635
        }
      },
      "is_potentially_hazardous_asteroid" : true,
      "close_approach_data" : [ {
        "close_approach_date" : "2004-03-08",
        "epoch_date_close_approach" : 1078732800000,
        "relative_velocity" : {
          "kilometers_per_second" : "23.6047992518",
          "kilometers_per_hour" : "84977.2773066283",
          "miles_per_hour" : "52801.5754464436"
        },
        "miss_distance" : {
          "astronomical" : "0.3089955264",
          "lunar" : "120.199256897",
          "kilometers" : "46225072",
          "miles" : "28722928"
        },
        "orbiting_body" : "Earth"
      } ],
      "orbital_data" : {
        "orbit_id" : "18",
        "orbit_determination_date" : "2017-04-06 09:21:38",
        "orbit_uncertainty" : "0",
        "minimum_orbit_intersection" : ".0436135",
        "jupiter_tisserand_invariant" : "4.155",
        "epoch_osculation" : "2458000.5",
        "eccentricity" : ".5029971333722685",
        "semi_major_axis" : "1.598458759402439",
        "inclination" : "20.07496488649296",
        "ascending_node_longitude" : "154.9054497924404",
        "orbital_period" : "738.1601241636142",
        "perihelion_distance" : ".7944385856092195",
        "perihelion_argument" : "101.7625655179864",
        "aphelion_distance" : "2.402478933195658",
        "perihelion_time" : "2458292.552328171119",
        "mean_anomaly" : "217.5663535594904",
        "mean_motion" : ".4876990617827054",
        "equinox" : "J2000"
      }
    } ]
  }
}